{"type": "FeatureCollection", "features": [ {"type": "Feature", "properties": {"norad_id": 36274, "name": "FENGYUN 1C DEB", "group": "fengyun-1c-debris", "lat": -30.49074946736202, "lon": 68.85802979486205, "alt_km": 831.4156129132207, "timestamp": "2025-12-15T04:01:20.739896+00:00", "meta": {"OBJECT_NAME": "FENGYUN 1C DEB", "OBJECT_ID": "1999-025DXB", "EPOCH": "2025-12-09T11:35:55.514688", "MEAN_MOTION": 14.23402311, "ECCENTRICITY": 0.00622561, "INCLINATION": 99.139, "RA_OF_ASC_NODE": 57.5181, "ARG_OF_PERICENTER": 239.4806, "MEAN_ANOMALY": 136.1937, "EPHEMERIS_TYPE": 0, "CLASSIFICATION_TYPE": "U", "NORAD_CAT_ID": 36274, "ELEMENT_SET_NO": 999, "REV_AT_EPOCH": 62939, "BSTAR": 0.0044809329, "MEAN_MOTION_DOT": 0.00010342, "MEAN_MOTION_DDOT": 0}, "tle": {"line1": "1 36274U 99025DXB 25343.48328142  .00010342  00000+0  44809-2 0  9992", "line2": "2 36274  99.1390  57.5181 0062256 239.4806 136.1937 14.23402311629395"}}, "geometry": {"type": "Point", "coordinates": [68.85802979486205, -30.49074946736202]}}, {"type": "Feature", "properties": {"norad_id": 36278, "name": "FENGYUN 1C DEB", "group": "fengyun-1c-debris", "lat": 36.02151981801649, "lon": 94.23154116942284, "alt_km": 865.7849947388486, "timestamp": "2025-12-15T04:01:20.739905+00:00", "meta": {"OBJECT_NAME": "FENGYUN 1C DEB", "OBJECT_ID": "1999-025DXF", "EPOCH": "2025-12-04T01:21:08.443872", "MEAN_MOTION": 14.17353569, "ECCENTRICITY": 0.00613363, "INCLINATION": 99.1236, "RA_OF_ASC_NODE": 256.1206, "ARG_OF_PERICENTER": 315.5831, "MEAN_ANOMALY": 44.0433, "EPHEMERIS_TYPE": 0, "CLASSIFICATION_TYPE": "U", "NORAD_CAT_ID": 36278, "ELEMENT_SET_NO": 999, "REV_AT_EPOCH": 93353, "BSTAR": 0.0008477729, "MEAN_MOTION_DOT": 1.7e-05, "MEAN_MOTION_DDOT": 0}, "tle": {"line1": "1 36278U 99025DXF 25338.05634773  .00001700  00000+0  84777-3 0  9990", "line2": "2 36278  99.1236 256.1206 0061336 315.5831  44.0433 14.17353569933530"}}, "geometry": {"type": "Point", "coordinates": [94.23154116942284, 36.02151981801649]}}, {"type": "Feature", "properties": {"norad_id": 36279, "name": "FENGYUN 1C DEB", "group": "fengyun-1c-debris", "lat": 34.17600619730485, "lon": 152.9429127083504, "alt_km": 846.181303620956, "timestamp": "2025-12-15T04:01:20.739916+00:00", "meta": {"OBJECT_NAME": "FENGYUN 1C DEB", "OBJECT_ID": "1999-025DXG", "EPOCH": "2025-12-13T03:49:01.258176", "MEAN_MOTION": 14.1472808, "ECCENTRICITY": 0.00629293, "INCLINATION": 98.5609, "RA_OF_ASC_NODE": 325.1462, "ARG_OF_PERICENTER": 54.1231, "MEAN_ANOMALY": 306.5764, "EPHEMERIS_TYPE": 0, "CLASSIFICATION_TYPE": "U", "NORAD_CAT_ID": 36279, "ELEMENT_SET_NO": 999, "REV_AT_EPOCH": 89045, "BSTAR": 0.00020141658, "MEAN_MOTION_DOT": 3.54e-06, "MEAN_MOTION_DDOT": 0}, "tle": {"line1": "1 36279U 99025DXG 25347.15904234  .00000354  00000+0  20142-3 0  9994", "line2": "2 36279  98.5609 325.1462 0062929  54.1231 306.5764 14.14728080890455"}}, "geometry": {"type": "Point", "coordinates": [152.9429127083504, 34.17600619730485]}}, {"type": "Feature", "properties": {"norad_id": 36280, "name": "FENGYUN 1C DEB", "group": "fengyun-1c-debris", "lat": 39.3636601675645, "lon": -154.62897148164794, "alt_km": 849.9767437636865, "timestamp": "2025-12-15T04:01:20.739926+00:00", "meta": {"OBJECT_NAME": "FENGYUN 1C DEB", "OBJECT_ID": "1999-025DXH", "EPOCH": "2025-12-14T08:42:07.968672", "MEAN_MOTION": 14.09745796, "ECCENTRICITY": 0.00631161, "INCLINATION": 98.7676, "RA_OF_ASC_NODE": 17.3137, "ARG_OF_PERICENTER": 60.9601, "MEAN_ANOMALY": 315.1021, "EPHEMERIS_TYPE": 0, "CLASSIFICATION_TYPE": "U", "NORAD_CAT_ID": 36280, "ELEMENT_SET_NO": 999, "REV_AT_EPOCH": 86377, "BSTAR": 0.0011193249, "MEAN_MOTION_DOT": 1.96e-05, "MEAN_MOTION_DDOT": 0}, "tle": {"line1": "1 36280U 99025DXH 25348.36259223  .00001960  00000+0  11193-2 0  9990", "line2": "2 36280  98.7676  17.3137 0063116  60.9601 315.1021 14.09745796863771"}}, "geometry": {"type": "Point", "coordinates": [-154.62897148164794, 39.3636601675645]}}, {"type": "Feature", "properties": {"norad_id": 36281, "name": "FENGYUN 1C DEB", "group": "fengyun-1c-debris", "lat": 4.631833307349754, "lon": -89.77114945559974, "alt_km": 1067.4300951889645, "timestamp": "2025-12-15T04:01:20.739936+00:00", "meta": {"OBJECT_NAME": "FENGYUN 1C DEB", "OBJECT_ID": "1999-025DXJ", "EPOCH": "2025-12-14T01:31:10.575840", "MEAN_MOTION": 13.60258793, "ECCENTRICITY": 0.02903695, "INCLINATION": 99.258, "RA_OF_ASC_NODE": 269.9398, "ARG_OF_PERICENTER": 107.4302, "MEAN_ANOMALY": 255.8804, "EPHEMERIS_TYPE": 0, "CLASSIFICATION_TYPE": "U", "NORAD_CAT_ID": 36281, "ELEMENT_SET_NO": 999, "REV_AT_EPOCH": 84535, "BSTAR": 0.0034993602, "MEAN_MOTION_DOT": 3.427e-05, "MEAN_MOTION_DDOT": 0}, "tle": {"line1": "1 36281U 99025DXJ 25348.06331685  .00003427  00000+0  34994-2 0  9995", "line2": "2 36281  99.2580 269.9398 0290369 107.4302 255.8804 13.60258793845358"}}, "geometry": {"type": "Point", "coordinates": [-89.77114945559974, 4.631833307349754]}}, {"type": "Feature", "properties": {"norad_id": 36283, "name": "FENGYUN 1C DEB", "group": "fengyun-1c-debris", "lat": 32.163221887335126, "lon": -51.19492223852215, "alt_km": 498.90793109180413, "timestamp": "2025-12-15T04:01:20.739946+00:00", "meta": {"OBJECT_NAME": "FENGYUN 1C DEB", "OBJECT_ID": "1999-025DXL", "EPOCH": "2025-12-12T04:08:21.741504", "MEAN_MOTION": 15.06204113, "ECCENTRICITY": 0.00680236, "INCLINATION": 99.4211, "RA_OF_ASC_NODE": 311.1422, "ARG_OF_PERICENTER": 52.2537, "MEAN_ANOMALY": 308.4822, "EPHEMERIS_TYPE": 0, "CLASSIFICATION_TYPE": "U", "NORAD_CAT_ID": 36283, "ELEMENT_SET_NO": 999, "REV_AT_EPOCH": 66657, "BSTAR": 0.0025072504, "MEAN_MOTION_DOT": 0.00038819, "MEAN_MOTION_DDOT": 0}, "tle": {"line1": "1 36283U 99025DXL 25346.17247386  .00038819  00000+0  25073-2 0  9992", "line2": "2 36283  99.4211 311.1422 0068023  52.2537 308.4822 15.06204113666577"}}, "geometry": {"type": "Point", "coordinates": [-51.19492223852215, 32.163221887335126]}}, {"type": "Feature", "properties": {"norad_id": 36644, "name": "FENGYUN 1C DEB", "group": "fengyun-1c-debris", "lat": -5.829805705200356, "lon": -53.43513602033771, "alt_km": 834.5444376328132, "timestamp": "2025-12-15T04:01:20.739957+00:00", "meta": {"OBJECT_NAME": "FENGYUN 1C DEB", "OBJECT_ID": "1999-025DXN", "EPOCH": "2025-12-06T15:56:19.275936", "MEAN_MOTION": 13.59167664, "ECCENTRICITY": 0.02857814, "INCLINATION": 98.4234, "RA_OF_ASC_NODE": 120.1104, "ARG_OF_PERICENTER": 196.1478, "MEAN_ANOMALY": 163.0413, "EPHEMERIS_TYPE": 0, "CLASSIFICATION_TYPE": "U", "NORAD_CAT_ID": 36644, "ELEMENT_SET_NO": 999, "REV_AT_EPOCH": 61485, "BSTAR": 0.0026178612, "MEAN_MOTION_DOT": 2.485e-05, "MEAN_MOTION_DDOT": 0}, "tle": {"line1": "1 36644U 99025DXN 25340.66411199  .00002485  00000+0  26179-2 0  9994", "line2": "2 36644  98.4234 120.1104 0285781 196.1478 163.0413 13.59167664614851"}}, "geometry": {"type": "Point", "coordinates": [-53.43513602033771, -5.829805705200356]}}, {"type": "Feature", "properties": {"norad_id": 36647, "name": "FENGYUN 1C DEB", "group": "fengyun-1c-debris", "lat": -58.946453579193, "lon": -61.24091900102953, "alt_km": 832.6896014777376, "timestamp": "2025-12-15T04:01:20.739967+00:00", "meta": {"OBJECT_NAME": "FENGYUN 1C DEB", "OBJECT_ID": "1999-025DXR", "EPOCH": "2025-12-12T16:03:45.149184", "MEAN_MOTION": 13.88818292, "ECCENTRICITY": 0.02395033, "INCLINATION": 96.1208, "RA_OF_ASC_NODE": 127.3787, "ARG_OF_PERICENTER": 300.0828, "MEAN_ANOMALY": 57.6784, "EPHEMERIS_TYPE": 0, "CLASSIFICATION_TYPE": "U", "NORAD_CAT_ID": 36647, "ELEMENT_SET_NO": 999, "REV_AT_EPOCH": 30411, "BSTAR": 0.003742639, "MEAN_MOTION_DOT": 5.663e-05, "MEAN_MOTION_DDOT": 0}, "tle": {"line1": "1 36647U 99025DXR 25346.66927256  .00005663  00000+0  37426-2 0  9997", "line2": "2 36647  96.1208 127.3787 0239503 300.0828  57.6784 13.88818292304118"}}, "geometry": {"type": "Point", "coordinates": [-61.24091900102953, -58.946453579193]}}, {"type": "Feature", "properties": {"norad_id": 36652, "name": "FENGYUN 1C DEB", "group": "fengyun-1c-debris", "lat": -9.22312164349586, "lon": 72.83928477481389, "alt_km": 783.4950932676129, "timestamp": "2025-12-15T04:01:20.739977+00:00", "meta": {"OBJECT_NAME": "FENGYUN 1C DEB", "OBJECT_ID": "1999-025DXW", "EPOCH": "2025-12-13T11:33:38.698560", "MEAN_MOTION": 14.22826498, "ECCENTRICITY": 0.00505856, "INCLINATION": 98.9411, "RA_OF_ASC_NODE": 69.6637, "ARG_OF_PERICENTER": 351.0783, "MEAN_ANOMALY": 8.949, "EPHEMERIS_TYPE": 0, "CLASSIFICATION_TYPE": "U", "NORAD_CAT_ID": 36652, "ELEMENT_SET_NO": 999, "REV_AT_EPOCH": 64335, "BSTAR": 0.0026137757, "MEAN_MOTION_DOT": 5.903e-05, "MEAN_MOTION_DDOT": 0}, "tle": {"line1": "1 36652U 99025DXW 25347.48169790  .00005903  00000+0  26138-2 0  9990", "line2": "2 36652  98.9411  69.6637 0050585 351.0783   8.9490 14.22826498643350"}}, "geometry": {"type": "Point", "coordinates": [72.83928477481389, -9.22312164349586]}}, {"type": "Feature", "properties": {"norad_id": 36657, "name": "FENGYUN 1C DEB", "group": "fengyun-1c-debris", "lat": -6.188287006680893, "lon": -40.59975523162754, "alt_km": 722.8881887149491, "timestamp": "2025-12-15T04:01:20.739987+00:00", "meta": {"OBJECT_NAME": "FENGYUN 1C DEB", "OBJECT_ID": "1999-025DYB", "EPOCH": "2025-12-12T16:11:48.670368", "MEAN_MOTION": 14.65523895, "ECCENTRICITY": 0.01058138, "INCLINATION": 99.412, "RA_OF_ASC_NODE": 137.5788, "ARG_OF_PERICENTER": 67.2245, "MEAN_ANOMALY": 294.0093, "EPHEMERIS_TYPE": 0, "CLASSIFICATION_TYPE": "U", "NORAD_CAT_ID": 36657, "ELEMENT_SET_NO": 999, "REV_AT_EPOCH": 66255, "BSTAR": 0.0010114321, "MEAN_MOTION_DOT": 5.894e-05, "MEAN_MOTION_DDOT": 0}, "tle": {"line1": "1 36657U 99025DYB 25346.67486887  .00005894  00000+0  10114-2 0  9990", "line2": "2 36657  99.4120 137.5788 0105813  67.2245 294.0093 14.65523895662556"}}, "geometry": {"type": "Point", "coordinates": [-40.59975523162754, -6.188287006680893]}}]}